COMMENT,ORIGINATOR,NORAD_CAT_ID,OBJECT_NAME,OBJECT_TYPE,CLASSIFICATION_TYPE,INTLDES,EPOCH,EPOCH_MICROSECONDS,MEAN_MOTION,ECCENTRICITY,INCLINATION,RA_OF_ASC_NODE,ARG_OF_PERICENTER,MEAN_ANOMALY,EPHEMERIS_TYPE,ELEMENT_SET_NO,REV_AT_EPOCH,BSTAR,MEAN_MOTION_DOT,MEAN_MOTION_DDOT,FILE,TLE_LINE0,TLE_LINE1,TLE_LINE2,OBJECT_ID,OBJECT_NUMBER,SEMIMAJOR_AXIS,PERIOD,APOGEE,PERIGEE
"GENERATED VIA SPACETRACK.ORG API","JSPOC","10358","COSMOS 952","PAYLOAD","U","77088A","2016-01-13 07:34:38","697888","13.83576083","0.0042631","64.9371","293.5221","173.9172","323.8766","0","999","93661","2.6773e-05","-5.9e-07","0","1979846","0 COSMOS 952","1 10358U 77088A   16013.31572567 -.00000059  00000-0  26773-4 0  9998","2 10358  64.9371 293.5221 0042631 173.9172 323.8766 13.83576083936613","1977-088A","10358","7329.367","104.078","982.477","919.986"
"GENERATED VIA SPACETRACK.ORG API","JSPOC","15626","EKRAN 14","PAYLOAD","U","85024A","2016-01-13 07:35:46","494240","0.94798147","0.0022695","16.9703","353.7388","264.6544","113.5763","0","999","8617","0","-1.49e-06","0","1979841","0 EKRAN 14","1 15626U 85024A   16013.31651035 -.00000149  00000-0  00000+0 0  9998","2 15626  16.9703 353.7388 0022695 264.6544 113.5763  0.94798147 86177","1985-024A","15626","43772.559","1519.017","37493.766","37295.082"
"GENERATED VIA SPACETRACK.ORG API","JSPOC","7545","ATLAS CENTAUR R/B","ROCKET BODY","U","74093B","2016-01-13 07:36:19","659744","2.211358","0.7184801","26.0056","248.9089","335.6995","305.9811","0","999","20261","-0.0016971","-1.42e-06","0","1980270","0 ATLAS CENTAUR R/B","1  7545U 74093B   16013.31689421 -.00000142 +00000-0 -16971-2 0  9994","2  7545 026.0056 248.9089 7184801 335.6995 305.9811 02.21135800202611","1974-093B","7545","24886.422","651.183","36388.686","627.888"
"GENERATED VIA SPACETRACK.ORG API","JSPOC","20800","METEOSAT 4 AKM","ROCKET BODY","U","89020E","2016-01-13 07:38:25","84032","1.00439328","0.012968","14.257","3.4772","153.5001","262.7456","0","999","7795","0","5.5e-07","0","1980270","0 METEOSAT 4 AKM","1 20800U 89020E   16013.31834588 +.00000055 +00000-0 +00000-0 0  9990","2 20800 014.2570 003.4772 0129680 153.5001 262.7456 01.00439328077955","1989-020E","20800","42117.828","1433.701","36285.877","35193.509"
"GENERATED VIA SPACETRACK.ORG API","JSPOC","18121","SL-8 R/B","ROCKET BODY","U","87051J","2016-01-13 07:38:56","505120","12.22520692","0.0131742","74.0094","310.9675","158.6487","0.7029","0","999","27543","0.00018533","6e-08","0","1979821","0 SL-8 R/B","1 18121U 87051J   16013.31870955  .00000006  00000-0  18533-3 0  9992","2 18121  74.0094 310.9675 0131742 158.6487   0.7029 12.22520692275437","1987-051J","18121","7959.718","117.789","1686.446","1476.720"
"GENERATED VIA SPACETRACK.ORG API","JSPOC","13890","MOLNIYA 1-56","PAYLOAD","U","83019A","2016-01-13 07:39:09","493632","1.999176","0.7104446","63.789","315.0744","265.8696","226.4343","0","999","23967","0","1.179e-05","0","1980270","0 MOLNIYA 1-56","1 13890U 83019A   16013.31885988 +.00001179 +00000-0 +00000-0 0  9991","2 13890 063.7890 315.0744 7104446 265.8696 226.4343 01.99917600239671","1983-019A","13890","26617.534","720.296","39149.682","1329.115"
"GENERATED VIA SPACETRACK.ORG API","JSPOC","26393","SL-12 R/B(2)","ROCKET BODY","U","00035D","2016-01-13 07:39:14","493600","1.45656794","0.756244","60.7879","40.3009","259.4257","123.7533","0","999","8267","0","-1.73e-06","0","1979832","0 SL-12 R/B(2)","1 26393U 00035D   16013.31891775 -.00000173  00000-0  00000+0 0  9994","2 26393  60.7879  40.3009 7562440 259.4257 123.7533  1.45656794 82674","2000-035D","26393","32873.656","988.625","51356.026","1635.015"
"GENERATED VIA SPACETRACK.ORG API","JSPOC","38980","BREEZE-M R/B","ROCKET BODY","U","12061D","2016-01-13 07:39:24","731136","1.12485644","0.0795248","2.648","69.1153","20.0068","342.8781","0","999","1282","0","-1.01e-06","0","1979846","0 BREEZE-M R/B","1 38980U 12061D   16013.31903624 -.00000101  00000-0  00000+0 0  9999","2 38980   2.6480  69.1153 0795248  20.0068 342.8781  1.12485644 12827","2012-061D","38980","39054.442","1280.163","35782.104","29570.510"
"GENERATED VIA SPACETRACK.ORG API","JSPOC","18701","COSMOS 1903","PAYLOAD","U","87105A","2016-01-13 07:39:57","234816","2.00790859","0.5599609","68.9128","12.6573","175.7004","192.7482","0","999","20630","0","2.5e-06","0","1980270","0 COSMOS 1903","1 18701U 87105A   16013.31941244 +.00000250 +00000-0 +00000-0 0  9994","2 18701 068.9128 012.6573 5599609 175.7004 192.7482 02.00790859206308","1987-105A","18701","26540.303","717.164","35023.700","5300.636"
"GENERATED VIA SPACETRACK.ORG API","JSPOC","22089","OPTUS B1 R/B(STAR 63F)","ROCKET BODY","U","92054C","2016-01-13 07:40:19","77600","2.22331714","0.7278837","22.6928","147.977","90.1734","345.2547","0","999","18797","0.00042196","2.46e-06","0","1980270","0 OPTUS B1 R/B(STAR 63F)","1 22089U 92054C   16013.31966525 +.00000246 +00000-0 +42196-3 0  9996","2 22089 022.6928 147.9770 7278837 090.1734 345.2547 02.22331714187970","1992-054C","22089","24797.100","647.680","36468.370","369.560"
"GENERATED VIA SPACETRACK.ORG API","JSPOC","4251","DELTA 1 R/B","ROCKET BODY","U","69101B","2016-01-13 07:41:49","934112","4.52432044","0.5647156","27.7304","121.8205","303.7219","14.6427","0","999","50490","0.00053812","1.373e-05","0","1979823","0 DELTA 1 R/B","1 04251U 69101B   16013.32071683  .00001373  00000-0  53812-3 0  9996","2 04251  27.7304 121.8205 5647156 303.7219  14.6427  4.52432044504905","1969-101B","4251","15441.859","318.279","17783.983","343.465"
"GENERATED VIA SPACETRACK.ORG API","JSPOC","6708","SL-8 R/B","ROCKET BODY","U","73042B","2016-01-13 07:42:38","873664","13.74057507","0.0012084","82.947","83.6355","231.6052","196.7676","0","999","13331","4.4625e-05","5.7e-07","0","1979851","0 SL-8 R/B","1 06708U 73042B   16013.32128326  .00000057  00000-0  44625-4 0  9992","2 06708  82.9470  83.6355 0012084 231.6052 196.7676 13.74057507133319","1973-042B","6708","7363.176","104.799","993.939","976.144"
"GENERATED VIA SPACETRACK.ORG API","JSPOC","40930","ASTROSAT","PAYLOAD","U","15052A","2016-01-13 07:42:57","525696","14.76232644","0.0012152","5.9984","346.5345","68.3362","291.8089","0","999","1586","5.5542e-05","1.031e-05","0","1979847","0 ASTROSAT","1 40930U 15052A   16013.32149914  .00001031  00000-0  55542-4 0  9993","2 40930   5.9984 346.5345 0012152  68.3362 291.8089 14.76232644 15868","2015-052A","40930","7019.378","97.545","649.773","632.713"
"GENERATED VIA SPACETRACK.ORG API","JSPOC","15993","OPTUS A1 (AUSSAT 1)","PAYLOAD","U","85076B","2016-01-13 07:43:06","780864","0.9976017","0.0005398","15.1844","12.8767","250.0387","255.8596","0","999","8159","0","-2.4e-06","0","1979849","0 OPTUS A1 (AUSSAT 1)","1 15993U 85076B   16013.32160626 -.00000240  00000-0  00000+0 0  9996","2 15993  15.1844  12.8767 0005398 250.0387 255.8596  0.99760170 81595","1985-076B","15993","42308.768","1443.461","35953.472","35907.795"
"GENERATED VIA SPACETRACK.ORG API","JSPOC","32767","VINASAT 1","PAYLOAD","U","08018A","2016-01-13 07:43:16","787712","1.00271098","0.0001881","0.0158","332.1596","344.285","43.5297","0","999","2841","0","-3.31e-06","0","1979846","0 VINASAT 1","1 32767U 08018A   16013.32172208 -.00000331  00000-0  00000+0 0  9995","2 32767   0.0158 332.1596 0001881 344.2850  43.5297  1.00271098 28417","2008-018A","32767","42164.924","1436.106","35794.720","35778.858"
"GENERATED VIA SPACETRACK.ORG API","JSPOC","1508","THOR ABLESTAR R/B","ROCKET BODY","U","65065B","2016-01-13 07:43:19","630272","13.35923076","0.0040226","90.1092","252.1335","270.7724","226.6679","0","999","45754","4.2103e-05","3e-07","0","1979827","0 THOR ABLESTAR R/B","1 01508U 65065B   16013.32175498  .00000030  00000-0  42103-4 0  9993","2 01508  90.1092 252.1335 0040226 270.7724 226.6679 13.35923076457543","1965-065B","1508","7502.641","107.790","1154.686","1094.326"
"GENERATED VIA SPACETRACK.ORG API","JSPOC","35497","ARIANE 5 R/B","ROCKET BODY","U","09035B","2016-01-13 07:43:43","331520","4.14313174","0.5999635","5.7305","153.9288","174.5518","197.2971","0","999","7880","0.00086348","0.00065452","5.4367","1979842","0 ARIANE 5 R/B","1 35497U 09035B   16013.32202930  .00065452  54367-6  86348-3 0  9992","2 35497   5.7305 153.9288 5999635 174.5518 197.2971  4.14313174 78800","2009-035B","35497","16375.051","347.563","19821.350","172.483"
"GENERATED VIA SPACETRACK.ORG API","JSPOC","28983","PEGASUS R/B","ROCKET BODY","U","06008D","2016-01-13 07:43:52","409568","11.22300814","0.2074795","105.5385","142.4387","144.5566","231.2943","0","999","38540","0.00090544","0.00019355","2.0872e-06","1979914","0 PEGASUS R/B","1 28983U 06008D   16013.32213437  .00019355  20872-5  90544-3 0  9992","2 28983 105.5385 142.4387 2074795 144.5566 231.2943 11.22300814385409","2006-008D","28983","8426.792","128.307","3797.044","300.271"
"GENERATED VIA SPACETRACK.ORG API","JSPOC","22275","NAVSTAR 29 (USA 87)","PAYLOAD","U","92089A","2016-01-13 07:43:56","440128","1.88248016","0.0045503","55.2912","259.54","23.1281","120.9929","0","999","16528","0","2.6e-07","0","1980255","0 NAVSTAR 29 (USA 87)","1 22275U 92089A   16013.32218102  .00000026  00000-0  00000+0 0  9993","2 22275  55.2912 259.5400 0045503  23.1281 120.9929  1.88248016165285","1992-089A","22275","27706.493","764.948","21454.431","21202.285"
"GENERATED VIA SPACETRACK.ORG API","JSPOC","22275","NAVSTAR 29 (USA 87)","PAYLOAD","U","92089A","2016-01-13 07:43:56","440128","1.88248016","0.0045503","55.2912","259.54","23.1281","120.9929","0","999","16522","0","2.6e-07","0","1980270","0 NAVSTAR 29 (USA 87)","1 22275U 92089A   16013.32218102 +.00000026 +00000-0 +00000-0 0  9994","2 22275 055.2912 259.5400 0045503 023.1281 120.9929 01.88248016165229","1992-089A","22275","27706.493","764.948","21454.431","21202.285"
